#cP2025  2  7  0  0  0.00000000     288   u+U IGS20 FIT  GFZ                    
## 2352 432000.00000000   300.00000000 60713 0.0000000000000                    
+   79   E02E03E04E05E06E07E08E09E10E12E13E14E15E16E18E19E21                    
+        E23E24E25E26E27E29E30E31E33E34E36G01G03G04G05G06G07                    
+        G08G09G10G11G12G13G14G15G16G17G18G19G20G21G22G23G24                    
+        G25G26G27G28G29G30G31G32R01R02R03R04R05R07R08R09R11                    
+        R12R14R15R16R17R18R19R20R21R22R24 00 00 00 00 00 00                    
++         5  5  5  6  5  5  5  5  5  0  6  5  5  5  5  5  5                    
++         5  5  5  5  5  5  6  5  5  5  6  9  5  5  5  6  5                    
++         5  5  5  5  5  5  6  5  5  5  6  6  6  5  5  5  6                    
++         5  5  5  5  5  5  5  5  8  5  6  5  7  7  6  8  5                    
++         7  6  6  7  7  5  7  9  6  6  6  0  0  0  0  0  0                    
%c M  cc GPS ccc cccc cccc cccc cccc ccccc ccccc ccccc ccccc                    
%c cc cc ccc ccc cccc cccc cccc cccc ccccc ccccc ccccc ccccc                    
%f  1.2500000  1.025000000  0.00000000000  0.000000000000000                    
%f  0.0000000  0.000000000  0.00000000000  0.000000000000000                    
%i    0    0    0    0      0      0      0      0         0                    
%i    0    0    0    0      0      0      0      0         0                    
/* PCV:IGS20_2335 OL/AL:FES2014b NONE     YN CLK:CoN ORB:CoN                    
/*     GeoForschungsZentrum Potsdam                                             
/*                                                                              
/*                                                                              
*  2025  2  7 14 40  0.00000000                                                 
PE02  13979.488321  25915.271992  -3138.547280    195.919384                    
PE03   3740.809787  22168.200826 -19251.750066   -171.576666                    
PE04 -16836.085212  -3742.779406  24063.890591   -152.065826                    
PE05 -11285.947735  27172.593183  -3213.941325   4825.681286                    
PE06 -19936.518652   6912.146107  20750.201483    -79.678951                    
PE07  19826.560567 -16088.494540 -14978.114174   -167.781229                    
PE08  16407.764166   4405.552168 -24239.920429   -413.277389                    
PE09 -19770.303153  16037.483202  15093.147590   -767.439566                    
PE10 -29566.218557   1454.661951    -61.263610   -688.430251                    
PE12 -27887.191057  -4432.863344  -8918.353991   -129.563780                    
PE13  26912.242807  -7550.676164  -9709.131994    -30.123236                    
PE14 -13065.299361  19631.049503  -4249.874932    694.332038                    
PE15  27543.454093   4877.553020   9672.620727   -155.675865                    
PE16  -9288.137026  15492.641286 -23456.159212    -19.571706                    
PE18  11372.886098 -30136.387468  -3287.717935   1086.188328                    
PE19  -2219.822128 -23147.888256  18323.722867   1346.839557                    
PE21   1176.471740 -22617.547992  19046.482039   -644.925657                    
PE23 -14300.032372 -25750.936305   2933.482397      7.048726                    
PE24 -16160.640510   5948.268622 -24098.025065  -1256.289774                    
PE25  -1580.828324  22362.613882 -19337.509644     14.043798                    
PE26  10078.079201 -15551.160527 -23067.614744   -131.570439                    
PE27  16131.076155  -5878.593153  24105.042273   -576.738567                    
PE29  11086.843748 -27209.627440   3541.416061    -68.669373                    
PE30  21359.593002  13978.206570  14978.586144  -1218.599072                    
PE31 -21361.398861 -14081.039983 -14883.192793    -53.673898                    
PE33 -11568.171905 -14328.783677 -23164.492475     16.411084                    
PE34  12006.231723  14206.207609  23029.664251   -162.255188                    
PE36 -10626.076460  15309.794361  23010.205512   -349.987486                    
PG01  -5797.112760 -14634.899101 -21390.053407    105.548508                    
PG03 -11085.227363 -22895.332496  -8010.337365    659.779299                    
PG04  -2308.775061 -21334.679286  15571.666637    523.739859                    
PG05    -84.948221  18952.946231  18406.505842   -201.284963                    
PG06 -25512.887025   6206.104645   4523.750887   -171.975966                    
PG07 -20579.377695  -8214.972528  15510.495979    -13.613583                    
PG08   4512.348948 -25284.460833  -5874.671263    475.955302                    
PG09 -10085.228203 -13651.955737  20324.161102    558.448586                    
PG10  18496.918118   3772.631929 -18583.797158   -308.996558                    
PG11 -18714.533508  11953.671419  14567.905324   -748.514059                    
PG12   7782.217047  23577.984670  -9782.909393   -568.896528                    
PG13 -13565.246199  22663.417263    584.390630    695.796181                    
PG14 -19953.769194  -6976.092123 -16180.788941    594.347941                    
PG15   -725.040736  25744.678239  -6707.540465    260.753175                    
PG16   7252.124802 -14879.515690  20307.943831    -58.722804                    
PG17 -16543.262391   2119.733121 -20317.128396    437.125974                    
PG18  22106.849250   6446.334701  13466.288754   -654.331050                    
PG19 -18153.006082  11409.378441 -15515.966276    595.329466                    
PG20 -10833.330250  10886.042434  21756.152889    366.476313                    
PG21   3232.647852 -15634.840980 -20647.328889    101.857728                    
PG22 -16621.195119    515.165479 -20260.025456    -95.985345                    
PG23  19953.077037  15861.853058  -7830.555231    419.076370                    
PG24   2021.516494  15944.705927 -21595.962105   -454.899507                    
PG25  17453.433618  20167.417043    961.736415    495.414344                    
PG26  15068.539137  -6574.091221  20727.137961    -81.025731                    
PG27  12440.253735 -22611.120627   4879.173995    -31.879285                    
PG28  25764.011358  -6081.681184   2195.668366   -554.205832                    
PG29   8666.516713  14390.557152  20495.070060   -539.916072                    
PG30 -26248.695253    103.753690   5078.250323   -221.530599                    
PG31  22544.840112  -9957.870618  10105.286000   -216.063423                    
PG32  16906.985391  -8044.088985 -18523.769455   -526.440061                    
PR01  10880.715742    832.826776 -23049.761709    113.931591                    
PR02   8652.161706 -16648.997938 -17194.229258    -37.650056                    
PR03   1257.434339 -25421.021380  -1058.161350    116.402627                    
PR04  -6028.716782 -19829.540815  14893.078120    276.158701                    
PR05 -10411.369988  -3764.853748  22993.954977    144.982212                    
PR07  -1235.060049  25490.766766    934.550601    100.346540                    
PR08   6341.731485  19651.927615 -14935.568448     -6.195078                    
PR09 -13106.179758   4753.045591 -21365.322505    236.627932                    
PR11  16956.498906  15977.984498 -10359.145387     -7.173854                    
PR12  22259.509843   8368.413994   9262.208471     50.521619                    
PR14  -3431.123264 -13983.230462  21065.604259     27.715633                    
PR15 -18006.852086 -15876.418692   8645.169016     71.425180                    
PR16 -22279.707203  -8473.214630  -9128.575341     33.122885                    
PR17   8273.249366 -14452.098241 -19325.539650    164.131748                    
PR18  -7963.670255  -7637.713377 -22984.299441    185.857741                    
PR19 -19438.371176   1041.567493 -16482.195871    -39.811581                    
PR20 -22049.721272  12296.042064   3821.077462   -125.543328                    
PR21  -9678.867366  14549.367960  18574.940564   -174.783064                    
PR22   9164.700480   7485.973494  22623.359411    -59.570643                    
PR24  21171.479427 -13594.622723  -4214.786563    -91.484345                    
EOF                                     
